{
  "norad_id": 51959,
  "name": "STARLINK-3704",
  "history": [
    {
      "epoch": "2026-03-28T21:41:52.649376Z",
      "apogee_km": 478.6543112407235,
      "perigee_km": 476.72124288658233,
      "latitude_deg": 1.4571511073870693e-05,
      "longitude_deg": 155.74069905269042,
      "height_km": 478.60624957917145,
      "semi_major_axis_km": 6855.824777063653,
      "eccentricity": 0.00014098,
      "inclination_deg": 53.1556,
      "raan_deg": 307.5279,
      "arg_perigee_deg": 91.268,
      "mean_anomaly_deg": 268.8482,
      "mean_motion_rev_day": 15.29372223
    },
    {
      "epoch": "2026-03-29T00:50:05.079264Z",
      "apogee_km": 478.6445753708922,
      "perigee_km": 476.71521138075786,
      "latitude_deg": -3.975112798688879e-05,
      "longitude_deg": 107.95374412692377,
      "height_km": 478.6025402726787,
      "semi_major_axis_km": 6855.816893375825,
      "eccentricity": 0.00014071,
      "inclination_deg": 53.1555,
      "raan_deg": 306.9216,
      "arg_perigee_deg": 91.5183,
      "mean_anomaly_deg": 268.5978,
      "mean_motion_rev_day": 15.29374861
    },
    {
      "epoch": "2026-03-30T14:28:35.656608Z",
      "apogee_km": 478.66276717502114,
      "perigee_km": 476.77795486932973,
      "latitude_deg": 4.032868035694754e-05,
      "longitude_deg": -105.49479552002238,
      "height_km": 478.7415183982171,
      "semi_major_axis_km": 6855.857361022176,
      "eccentricity": 0.00013746,
      "inclination_deg": 53.157,
      "raan_deg": 299.6463,
      "arg_perigee_deg": 97.5527,
      "mean_anomaly_deg": 262.563,
      "mean_motion_rev_day": 15.2936132
    },
    {
      "epoch": "2026-03-30T20:45:00.694368Z",
      "apogee_km": 478.6823576875604,
      "perigee_km": 476.7501040129782,
      "latitude_deg": -1.0603072775202095e-05,
      "longitude_deg": 158.93089434768538,
      "height_km": 478.7029953545094,
      "semi_major_axis_km": 6855.853230850269,
      "eccentricity": 0.00014092,
      "inclination_deg": 53.1573,
      "raan_deg": 298.434,
      "arg_perigee_deg": 95.3148,
      "mean_anomaly_deg": 264.8013,
      "mean_motion_rev_day": 15.29362702
    },
    {
      "epoch": "2026-03-30T23:53:13.145856Z",
      "apogee_km": 478.6033954357463,
      "perigee_km": 476.80661636284003,
      "latitude_deg": -3.7845142735934984e-05,
      "longitude_deg": 111.1429695270445,
      "height_km": 478.61541847832416,
      "semi_major_axis_km": 6855.842005899292,
      "eccentricity": 0.00013104,
      "inclination_deg": 53.1573,
      "raan_deg": 297.8268,
      "arg_perigee_deg": 90.8293,
      "mean_anomaly_deg": 269.2857,
      "mean_motion_rev_day": 15.29366458
    },
    {
      "epoch": "2026-04-01T19:48:09.276768Z",
      "apogee_km": 478.5385923767926,
      "perigee_km": 476.92609190751955,
      "latitude_deg": -3.264057561873503e-05,
      "longitude_deg": 162.11504775740175,
      "height_km": 478.5511800998097,
      "semi_major_axis_km": 6855.869342142156,
      "eccentricity": 0.0001176,
      "inclination_deg": 53.1567,
      "raan_deg": 289.3363,
      "arg_perigee_deg": 84.3986,
      "mean_anomaly_deg": 275.7148,
      "mean_motion_rev_day": 15.29357311
    },
    {
      "epoch": "2026-04-02T19:19:42.937248Z",
      "apogee_km": 478.61085541844295,
      "perigee_km": 476.8050258610783,
      "latitude_deg": 2.875297326724118e-06,
      "longitude_deg": 163.71134382100303,
      "height_km": 478.55140144609015,
      "semi_major_axis_km": 6855.84494063976,
      "eccentricity": 0.0001317,
      "inclination_deg": 53.1581,
      "raan_deg": 284.789,
      "arg_perigee_deg": 86.5698,
      "mean_anomaly_deg": 273.5453,
      "mean_motion_rev_day": 15.29365476
    },
    {
      "epoch": "2026-04-02T22:27:55.476864Z",
      "apogee_km": 478.6899670174389,
      "perigee_km": 476.7267271438486,
      "latitude_deg": 6.791968937184728e-05,
      "longitude_deg": 115.92391949866443,
      "height_km": 478.5538550586106,
      "semi_major_axis_km": 6855.8453470806435,
      "eccentricity": 0.00014318,
      "inclination_deg": 53.1577,
      "raan_deg": 284.1826,
      "arg_perigee_deg": 86.9772,
      "mean_anomaly_deg": 273.1393,
      "mean_motion_rev_day": 15.2936534
    },
    {
      "epoch": "2026-04-03T18:51:17.781408Z",
      "apogee_km": 478.6414886801167,
      "perigee_km": 476.81782814897815,
      "latitude_deg": -3.552077449144363e-05,
      "longitude_deg": 165.3025386081762,
      "height_km": 478.5711387378177,
      "semi_major_axis_km": 6855.866658414548,
      "eccentricity": 0.000133,
      "inclination_deg": 53.1588,
      "raan_deg": 280.2416,
      "arg_perigee_deg": 86.4749,
      "mean_anomaly_deg": 273.6403,
      "mean_motion_rev_day": 15.29358209
    },
    {
      "epoch": "2026-04-05T11:38:01.929120Z",
      "apogee_km": 478.54803519799134,
      "perigee_km": 476.9888651805095,
      "latitude_deg": -6.131850607926879e-06,
      "longitude_deg": -95.9367212724069,
      "height_km": 478.51366889197004,
      "semi_major_axis_km": 6855.905450189251,
      "eccentricity": 0.00011371,
      "inclination_deg": 53.1591,
      "raan_deg": 272.361,
      "arg_perigee_deg": 78.7087,
      "mean_anomaly_deg": 281.4041,
      "mean_motion_rev_day": 15.29345229
    },
    {
      "epoch": "2026-04-05T17:54:27.033408Z",
      "apogee_km": 478.738428299278,
      "perigee_km": 476.7779165157772,
      "latitude_deg": 5.291478794294963e-06,
      "longitude_deg": 168.4879363278343,
      "height_km": 478.28544134329144,
      "semi_major_axis_km": 6855.895172407528,
      "eccentricity": 0.00014298,
      "inclination_deg": 53.1577,
      "raan_deg": 271.1479,
      "arg_perigee_deg": 67.814,
      "mean_anomaly_deg": 292.3012,
      "mean_motion_rev_day": 15.29348668
    },
    {
      "epoch": "2026-04-07T10:41:10.338720Z",
      "apogee_km": 478.7230861093876,
      "perigee_km": 476.7824579505168,
      "latitude_deg": -8.501068303683282e-06,
      "longitude_deg": -92.75303852390931,
      "height_km": 478.71659085808534,
      "semi_major_axis_km": 6855.889772029952,
      "eccentricity": 0.00014153,
      "inclination_deg": 53.1555,
      "raan_deg": 263.2621,
      "arg_perigee_deg": 93.9449,
      "mean_anomaly_deg": 266.1713,
      "mean_motion_rev_day": 15.29350475
    }
  ]
}